[{"OBJECT_NAME":"BB3","OBJECT_ID":"2023-133D","EPOCH":"2026-03-09T13:04:02.862912","MEAN_MOTION":14.27357433,"ECCENTRICITY":0.0139598,"INCLINATION":81.0042,"RA_OF_ASC_NODE":95.4105,"ARG_OF_PERICENTER":242.6727,"MEAN_ANOMALY":116.0185,"EPHEMERIS_TYPE":0,"CLASSIFICATION_TYPE":"U","NORAD_CAT_ID":57760,"ELEMENT_SET_NO":999,"REV_AT_EPOCH":12768,"BSTAR":0.00021531,"MEAN_MOTION_DOT":5.96e-6,"MEAN_MOTION_DDOT":0},{"OBJECT_NAME":"FENGYUN 1C DEB","OBJECT_ID":"1999-025EVQ","EPOCH":"2026-03-08T04:18:16.536384","MEAN_MOTION":14.15258027,"ECCENTRICITY":0.00916196,"INCLINATION":99.2943,"RA_OF_ASC_NODE":209.2642,"ARG_OF_PERICENTER":321.3583,"MEAN_ANOMALY":38.1057,"EPHEMERIS_TYPE":0,"CLASSIFICATION_TYPE":"U","NORAD_CAT_ID":38824,"ELEMENT_SET_NO":999,"REV_AT_EPOCH":70345,"BSTAR":0.0035397581,"MEAN_MOTION_DOT":7.128e-5,"MEAN_MOTION_DDOT":0}]
